ONEWEB-0451             
1 51643U 22012X   25255.20651923 -.00001075  00000+0 -28016-2 0  9996
2 51643  87.9041  61.1227 0001782  88.4260 271.7076 13.17654072177051
ONEWEB-0452             
1 51644U 22012Y   25255.20483765 -.00000016  00000+0 -73171-4 0  9992
2 51644  87.9037  61.1854 0001897  81.7286 278.4061 13.17649711177067
ONEWEB-0456             
1 51646U 22012AA  25255.55473962  .00000028  00000+0  43833-4 0  9993
2 51646  87.8743  91.5889 0001484  83.7124 276.4172 13.10368775172980
ONEWEB-0457             
1 51647U 22012AB  25254.92066244  .00000703  00000+0  19784-2 0  9991
2 51647  87.8740  91.7720 0002043  91.3941 268.7421 13.10375332172908
ONEWEB-0458             
1 51648U 22012AC  25255.55308747  .00000130  00000+0  33543-3 0  9993
2 51648  87.8732  91.6172 0001788  81.1108 279.0222 13.10369001172941
ONEWEB-0461             
1 51649U 22012AD  25255.53051182  .00000066  00000+0  13793-3 0  9993
2 51649  87.9047  61.0722 0001798  96.7393 263.3943 13.17652002177329
ONEWEB-0463             
1 51650U 22012AE  25255.20819737 -.00000134  00000+0 -37788-3 0  9995
2 51650  87.9030  61.1962 0001741  90.4774 269.6557 13.17648107177064
ONEWEB-0464             
1 51651U 22012AF  25255.54977162  .00000281  00000+0  76806-3 0  9995
2 51651  87.8737  91.6563 0001382  82.2022 277.9262 13.10369377172960
ONEWEB-0468             
1 51652U 22012AG  25255.25098601  .00001047  00000+0  29634-2 0  9993
2 51652  87.8735  91.7076 0001421  81.9776 278.1513 13.10366674172908
ONEWEB-0473             
1 51653U 22012AH  25255.54147062  .00000607  00000+0  17019-2 0  9997
2 51653  87.8734  91.6533 0001665  80.4508 279.6808 13.10370883172946
ONEWEB-0474             
1 51654U 22012AJ  25255.53317757  .00000641  00000+0  18007-2 0  9993
2 51654  87.8743  91.6160 0001566  77.1875 282.9428 13.10373196172937
ONEWEB-0475             
1 51655U 22012AK  25255.22002504  .00000090  00000+0  19869-3 0  9997
2 51655  87.9038  61.1768 0001681  64.8536 295.2770 13.17650488177084
ONEWEB-0490             
1 54113U 22138A   25255.56929140  .00000004  00000+0 -22961-4 0  9993
2 54113  87.9289   0.1530 0001609  99.6107 260.5208 13.19726914140210
ONEWEB-0492             
1 54114U 22138B   25255.59457185  .00000092  00000+0  19854-3 0  9994
2 54114  87.9282   0.1701 0001703 105.4998 254.6323 13.19725294140226
ONEWEB-0495             
1 54115U 22138C   25255.57245511 -.00000061  00000+0 -18457-3 0  9997
2 54115  87.9276   0.1832 0001122  90.9266 269.1996 13.19727087140203
ONEWEB-0497             
1 54116U 22138D   25255.58509391  .00000051  00000+0  95545-4 0  9999
2 54116  87.9290   0.1571 0001724  99.9745 260.1582 13.19727229140197
ONEWEB-0499             
1 54117U 22138E   25255.56774646 -.00002045  00000+0 -51427-2 0  9991
2 54117  87.9282   0.1779 0001742  88.2921 271.8411 13.19705461140202
