[{"OBJECT_NAME":"ONEWEB-0451","OBJECT_ID":"2022-012X","EPOCH":"2025-09-12T04:57:23.261472","MEAN_MOTION":13.17654072,"ECCENTRICITY":0.00017826,"INCLINATION":87.9041,"RA_OF_ASC_NODE":61.1227,"ARG_OF_PERICENTER":88.426,"MEAN_ANOMALY":271.7076,"EPHEMERIS_TYPE":0,"CLASSIFICATION_TYPE":"U","NORAD_CAT_ID":51643,"ELEMENT_SET_NO":999,"REV_AT_EPOCH":17705,"BSTAR":-0.0028015551,"MEAN_MOTION_DOT":-1.075e-5,"MEAN_MOTION_DDOT":0},{"OBJECT_NAME":"ONEWEB-0452","OBJECT_ID":"2022-012Y","EPOCH":"2025-09-12T04:54:57.972960","MEAN_MOTION":13.17649711,"ECCENTRICITY":0.00018973,"INCLINATION":87.9037,"RA_OF_ASC_NODE":61.1854,"ARG_OF_PERICENTER":81.7286,"MEAN_ANOMALY":278.4061,"EPHEMERIS_TYPE":0,"CLASSIFICATION_TYPE":"U","NORAD_CAT_ID":51644,"ELEMENT_SET_NO":999,"REV_AT_EPOCH":17706,"BSTAR":-7.3170533e-5,"MEAN_MOTION_DOT":-1.6e-7,"MEAN_MOTION_DDOT":0},{"OBJECT_NAME":"ONEWEB-0456","OBJECT_ID":"2022-012AA","EPOCH":"2025-09-12T13:18:49.503168","MEAN_MOTION":13.10368775,"ECCENTRICITY":0.00014843,"INCLINATION":87.8743,"RA_OF_ASC_NODE":91.5889,"ARG_OF_PERICENTER":83.7124,"MEAN_ANOMALY":276.4172,"EPHEMERIS_TYPE":0,"CLASSIFICATION_TYPE":"U","NORAD_CAT_ID":51646,"ELEMENT_SET_NO":999,"REV_AT_EPOCH":17298,"BSTAR":4.3833464e-5,"MEAN_MOTION_DOT":2.8e-7,"MEAN_MOTION_DDOT":0},{"OBJECT_NAME":"ONEWEB-0457","OBJECT_ID":"2022-012AB","EPOCH":"2025-09-11T22:05:45.234816","MEAN_MOTION":13.10375332,"ECCENTRICITY":0.00020435,"INCLINATION":87.874,"RA_OF_ASC_NODE":91.772,"ARG_OF_PERICENTER":91.3941,"MEAN_ANOMALY":268.7421,"EPHEMERIS_TYPE":0,"CLASSIFICATION_TYPE":"U","NORAD_CAT_ID":51647,"ELEMENT_SET_NO":999,"REV_AT_EPOCH":17290,"BSTAR":0.0019784477,"MEAN_MOTION_DOT":7.03e-6,"MEAN_MOTION_DDOT":0},{"OBJECT_NAME":"ONEWEB-0458","OBJECT_ID":"2022-012AC","EPOCH":"2025-09-12T13:16:26.757408","MEAN_MOTION":13.10369001,"ECCENTRICITY":0.00017889,"INCLINATION":87.8732,"RA_OF_ASC_NODE":91.6172,"ARG_OF_PERICENTER":81.1108,"MEAN_ANOMALY":279.0222,"EPHEMERIS_TYPE":0,"CLASSIFICATION_TYPE":"U","NORAD_CAT_ID":51648,"ELEMENT_SET_NO":999,"REV_AT_EPOCH":17294,"BSTAR":0.00033543432,"MEAN_MOTION_DOT":1.3e-6,"MEAN_MOTION_DDOT":0},{"OBJECT_NAME":"ONEWEB-0461","OBJECT_ID":"2022-012AD","EPOCH":"2025-09-12T12:43:56.221248","MEAN_MOTION":13.17652002,"ECCENTRICITY":0.00017985,"INCLINATION":87.9047,"RA_OF_ASC_NODE":61.0722,"ARG_OF_PERICENTER":96.7393,"MEAN_ANOMALY":263.3943,"EPHEMERIS_TYPE":0,"CLASSIFICATION_TYPE":"U","NORAD_CAT_ID":51649,"ELEMENT_SET_NO":999,"REV_AT_EPOCH":17732,"BSTAR":0.00013793406,"MEAN_MOTION_DOT":6.6e-7,"MEAN_MOTION_DDOT":0},{"OBJECT_NAME":"ONEWEB-0463","OBJECT_ID":"2022-012AE","EPOCH":"2025-09-12T04:59:48.252768","MEAN_MOTION":13.17648107,"ECCENTRICITY":0.00017412,"INCLINATION":87.903,"RA_OF_ASC_NODE":61.1962,"ARG_OF_PERICENTER":90.4774,"MEAN_ANOMALY":269.6557,"EPHEMERIS_TYPE":0,"CLASSIFICATION_TYPE":"U","NORAD_CAT_ID":51650,"ELEMENT_SET_NO":999,"REV_AT_EPOCH":17706,"BSTAR":-0.00037788046,"MEAN_MOTION_DOT":-1.34e-6,"MEAN_MOTION_DDOT":0},{"OBJECT_NAME":"ONEWEB-0464","OBJECT_ID":"2022-012AF","EPOCH":"2025-09-12T13:11:40.267968","MEAN_MOTION":13.10369377,"ECCENTRICITY":0.00013821,"INCLINATION":87.8737,"RA_OF_ASC_NODE":91.6563,"ARG_OF_PERICENTER":82.2022,"MEAN_ANOMALY":277.9262,"EPHEMERIS_TYPE":0,"CLASSIFICATION_TYPE":"U","NORAD_CAT_ID":51651,"ELEMENT_SET_NO":999,"REV_AT_EPOCH":17296,"BSTAR":0.00076806289,"MEAN_MOTION_DOT":2.81e-6,"MEAN_MOTION_DDOT":0},{"OBJECT_NAME":"ONEWEB-0468","OBJECT_ID":"2022-012AG","EPOCH":"2025-09-12T06:01:25.191264","MEAN_MOTION":13.10366674,"ECCENTRICITY":0.00014217,"INCLINATION":87.8735,"RA_OF_ASC_NODE":91.7076,"ARG_OF_PERICENTER":81.9776,"MEAN_ANOMALY":278.1513,"EPHEMERIS_TYPE":0,"CLASSIFICATION_TYPE":"U","NORAD_CAT_ID":51652,"ELEMENT_SET_NO":999,"REV_AT_EPOCH":17290,"BSTAR":0.0029633767,"MEAN_MOTION_DOT":1.047e-5,"MEAN_MOTION_DDOT":0},{"OBJECT_NAME":"ONEWEB-0473","OBJECT_ID":"2022-012AH","EPOCH":"2025-09-12T12:59:43.061568","MEAN_MOTION":13.10370883,"ECCENTRICITY":0.00016658,"INCLINATION":87.8734,"RA_OF_ASC_NODE":91.6533,"ARG_OF_PERICENTER":80.4508,"MEAN_ANOMALY":279.6808,"EPHEMERIS_TYPE":0,"CLASSIFICATION_TYPE":"U","NORAD_CAT_ID":51653,"ELEMENT_SET_NO":999,"REV_AT_EPOCH":17294,"BSTAR":0.0017019064,"MEAN_MOTION_DOT":6.07e-6,"MEAN_MOTION_DDOT":0},{"OBJECT_NAME":"ONEWEB-0474","OBJECT_ID":"2022-012AJ","EPOCH":"2025-09-12T12:47:46.542048","MEAN_MOTION":13.10373196,"ECCENTRICITY":0.00015669,"INCLINATION":87.8743,"RA_OF_ASC_NODE":91.616,"ARG_OF_PERICENTER":77.1875,"MEAN_ANOMALY":282.9428,"EPHEMERIS_TYPE":0,"CLASSIFICATION_TYPE":"U","NORAD_CAT_ID":51654,"ELEMENT_SET_NO":999,"REV_AT_EPOCH":17293,"BSTAR":0.0018006535,"MEAN_MOTION_DOT":6.41e-6,"MEAN_MOTION_DDOT":0},{"OBJECT_NAME":"ONEWEB-0475","OBJECT_ID":"2022-012AK","EPOCH":"2025-09-12T05:16:50.163456","MEAN_MOTION":13.17650488,"ECCENTRICITY":0.00016819,"INCLINATION":87.9038,"RA_OF_ASC_NODE":61.1768,"ARG_OF_PERICENTER":64.8536,"MEAN_ANOMALY":295.277,"EPHEMERIS_TYPE":0,"CLASSIFICATION_TYPE":"U","NORAD_CAT_ID":51655,"ELEMENT_SET_NO":999,"REV_AT_EPOCH":17708,"BSTAR":0.00019868632,"MEAN_MOTION_DOT":9.0e-7,"MEAN_MOTION_DDOT":0},{"OBJECT_NAME":"ONEWEB-0490","OBJECT_ID":"2022-138A","EPOCH":"2025-09-12T13:39:46.776960","MEAN_MOTION":13.19726914,"ECCENTRICITY":0.00016094,"INCLINATION":87.9289,"RA_OF_ASC_NODE":0.153,"ARG_OF_PERICENTER":99.6107,"MEAN_ANOMALY":260.5208,"EPHEMERIS_TYPE":0,"CLASSIFICATION_TYPE":"U","NORAD_CAT_ID":54113,"ELEMENT_SET_NO":999,"REV_AT_EPOCH":14021,"BSTAR":-2.2961171e-5,"MEAN_MOTION_DOT":4.0e-8,"MEAN_MOTION_DDOT":0},{"OBJECT_NAME":"ONEWEB-0492","OBJECT_ID":"2022-138B","EPOCH":"2025-09-12T14:16:11.007840","MEAN_MOTION":13.19725294,"ECCENTRICITY":0.00017033,"INCLINATION":87.9282,"RA_OF_ASC_NODE":0.1701,"ARG_OF_PERICENTER":105.4998,"MEAN_ANOMALY":254.6323,"EPHEMERIS_TYPE":0,"CLASSIFICATION_TYPE":"U","NORAD_CAT_ID":54114,"ELEMENT_SET_NO":999,"REV_AT_EPOCH":14022,"BSTAR":0.00019853814,"MEAN_MOTION_DOT":9.2e-7,"MEAN_MOTION_DDOT":0},{"OBJECT_NAME":"ONEWEB-0495","OBJECT_ID":"2022-138C","EPOCH":"2025-09-12T13:44:20.121504","MEAN_MOTION":13.19727087,"ECCENTRICITY":0.00011221,"INCLINATION":87.9276,"RA_OF_ASC_NODE":0.1832,"ARG_OF_PERICENTER":90.9266,"MEAN_ANOMALY":269.1996,"EPHEMERIS_TYPE":0,"CLASSIFICATION_TYPE":"U","NORAD_CAT_ID":54115,"ELEMENT_SET_NO":999,"REV_AT_EPOCH":14020,"BSTAR":-0.00018457155,"MEAN_MOTION_DOT":-6.1e-7,"MEAN_MOTION_DDOT":0},{"OBJECT_NAME":"ONEWEB-0497","OBJECT_ID":"2022-138D","EPOCH":"2025-09-12T14:02:32.113824","MEAN_MOTION":13.19727229,"ECCENTRICITY":0.00017244,"INCLINATION":87.929,"RA_OF_ASC_NODE":0.1571,"ARG_OF_PERICENTER":99.9745,"MEAN_ANOMALY":260.1582,"EPHEMERIS_TYPE":0,"CLASSIFICATION_TYPE":"U","NORAD_CAT_ID":54116,"ELEMENT_SET_NO":999,"REV_AT_EPOCH":14019,"BSTAR":9.5545304e-5,"MEAN_MOTION_DOT":5.1e-7,"MEAN_MOTION_DDOT":0},{"OBJECT_NAME":"ONEWEB-0499","OBJECT_ID":"2022-138E","EPOCH":"2025-09-12T13:37:33.294144","MEAN_MOTION":13.19705461,"ECCENTRICITY":0.00017423,"INCLINATION":87.9282,"RA_OF_ASC_NODE":0.1779,"ARG_OF_PERICENTER":88.2921,"MEAN_ANOMALY":271.8411,"EPHEMERIS_TYPE":0,"CLASSIFICATION_TYPE":"U","NORAD_CAT_ID":54117,"ELEMENT_SET_NO":999,"REV_AT_EPOCH":14020,"BSTAR":-0.0051427324,"MEAN_MOTION_DOT":-2.045e-5,"MEAN_MOTION_DDOT":0}]
